OBJECT_NAME,OBJECT_ID,EPOCH,MEAN_MOTION,ECCENTRICITY,INCLINATION,RA_OF_ASC_NODE,ARG_OF_PERICENTER,MEAN_ANOMALY,EPHEMERIS_TYPE,CLASSIFICATION_TYPE,NORAD_CAT_ID,ELEMENT_SET_NO,REV_AT_EPOCH,BSTAR,MEAN_MOTION_DOT,MEAN_MOTION_DDOT
CENTISPACE-1 GROUP 05 OBJECT J,2026-138J,2026-07-02T14:27:59.390208,14.15847705,.00086611,55.1397,224.2077,315.2940,44.7336,0,U,69636,999,217,-.13188036E-3,-.414E-5,0
VICTUS HAZE PUMA,2026-142A,2026-07-02T14:41:55.239360,15.20935823,.00219773,97.4463,81.0617,309.0752,50.8528,0,U,69646,999,201,.18746663E-4,.346E-5,0
HOKUSHIN-1,1998-067YH,2026-07-02T06:37:08.789952,15.50484062,.00061053,51.6307,225.3259,281.0628,78.9674,0,U,69648,999,199,.43464486E-3,.24869E-3,0
STARLINK-37656,2026-143A,2026-07-02T14:00:01.999872,15.77574903,.00017499,97.2839,227.2123,98.2919,99.4281,0,U,69649,999,293,-.16652457E-1,-.2381792E-1,0
STARLINK-37646,2026-143B,2026-07-02T14:00:01.999872,15.80772383,.00012982,97.2839,227.2295,96.5390,136.8758,0,U,69650,999,293,.50139467E-3,.96777E-3,0
STARLINK-37749,2026-143C,2026-07-02T14:00:01.999872,15.80822991,.00014805,97.2833,227.2339,84.2104,160.0923,0,U,69651,999,293,.28378589E-3,.54575E-3,0
STARLINK-37819,2026-143D,2026-07-02T14:00:01.999872,15.80807746,.00012264,97.2834,227.2224,87.8111,128.7146,0,U,69652,999,293,.38805037E-3,.74799E-3,0
STARLINK-37729,2026-143E,2026-07-02T14:00:01.999872,15.80806661,.00008839,97.2836,227.2323,94.3568,145.5485,0,U,69653,999,293,.36928837E-3,.71141E-3,0
STARLINK-37838,2026-143F,2026-07-02T14:00:01.999872,15.80815141,.00013671,97.2835,227.2234,91.6082,129.0280,0,U,69654,999,293,.27090163E-3,.52057E-3,0
STARLINK-37884,2026-143G,2026-07-02T14:00:01.999872,15.80817538,.0001494,97.2834,227.2445,119.3649,149.7933,0,U,69655,999,293,.24024257E-3,.46123E-3,0
STARLINK-37876,2026-143H,2026-07-02T14:00:01.999872,15.80816811,.0000919,97.2834,227.2352,92.7663,154.2430,0,U,69656,999,284,.24511456E-3,.47063E-3,0
STARLINK-37784,2026-143J,2026-07-02T14:00:01.999872,15.80797607,.00012799,97.2834,227.2357,95.1931,153.6144,0,U,69657,999,284,.48438711E-3,.93563E-3,0
STARLINK-37851,2026-143K,2026-07-02T14:00:01.999872,15.80816939,.00012232,97.2835,227.2469,90.4692,183.9514,0,U,69658,999,283,.24624386E-3,.47283E-3,0
STARLINK-37229,2026-143L,2026-07-02T14:00:01.999872,15.80808464,.00014532,97.2831,227.2267,82.3327,145.3724,0,U,69659,999,287,.39348642E-3,.75862E-3,0
STARLINK-37556,2026-143M,2026-07-02T14:00:01.999872,15.80807868,.00012616,97.2833,227.2311,92.8854,145.3205,0,U,69660,999,287,.35706868E-3,.68769E-3,0
STARLINK-37867,2026-143N,2026-07-02T14:00:01.999872,15.80803712,.00013425,97.2832,227.2521,99.6382,187.6075,0,U,69661,999,284,.38547834E-3,.74285E-3,0
STARLINK-37852,2026-143P,2026-07-02T14:00:01.999872,15.80818553,.00012166,97.2835,227.2318,92.3230,148.9215,0,U,69662,999,284,.22908988E-3,.43966E-3,0
STARLINK-37554,2026-143Q,2026-07-02T14:00:01.999872,15.80817616,.00015326,97.2834,227.2486,115.5435,163.8730,0,U,69663,999,287,.26729292E-3,.51364E-3,0
STARLINK-37830,2026-143R,2026-07-02T14:00:01.999872,15.80810192,.0001063,97.2834,227.2334,122.4499,123.4245,0,U,69664,999,283,.28885094E-3,.55524E-3,0
STARLINK-37837,2026-143S,2026-07-02T14:00:01.999872,15.80812703,.00008558,97.2834,227.2495,123.9902,159.2156,0,U,69665,999,284,.29084366E-3,.55916E-3,0
STARLINK-37943,2026-143T,2026-07-02T14:00:01.999872,15.80823768,.00016206,97.2834,227.2456,119.7017,153.2424,0,U,69666,999,284,.23545818E-3,.45211E-3,0
STARLINK-37941,2026-143U,2026-07-02T14:00:01.999872,15.80817998,.00013019,97.2832,227.2419,97.8213,166.9433,0,U,69667,999,284,.27117511E-3,.52116E-3,0
STARLINK-37930,2026-143V,2026-07-02T14:00:01.999872,15.80817655,.00012502,97.2832,227.2445,101.4171,169.3778,0,U,69668,999,283,.24362871E-3,.46778E-3,0
STARLINK-37945,2026-143W,2026-07-02T14:00:01.999872,15.80815891,.00010883,97.2831,227.2488,104.1365,176.6161,0,U,69669,999,284,.25441012E-3,.48862E-3,0
STARLINK-37948,2026-143X,2026-07-02T14:00:01.999872,15.81328147,.00013985,97.2833,227.2838,102.5028,259.1129,0,U,69670,999,284,-.1051524E-1,-.1814664E-1,0
STARLINK-37949,2026-143Y,2026-07-02T14:00:01.999872,15.80822150,.0001209,97.2836,227.2707,100.9188,231.4177,0,U,69671,999,284,.16590229E-3,.31761E-3,0
STARLINK-37946,2026-143Z,2026-07-02T14:00:01.999872,15.80829614,.00011658,97.2832,227.2621,101.6673,208.0273,0,U,69672,999,284,.11765087E-3,.22466E-3,0
TJS-26A,2026-144A,2026-06-23T07:54:55.514880,2.27958502,.73145613,19.5157,324.7456,179.7910,181.1077,0,U,69674,999,2,.31526459E-3,.963E-4,-.166614E-6
