CENTISPACE-1 GROUP 05 O*
1 69636U 26138J   26183.60277072 -.00000414  00000+0 -13188-3 0  9995
2 69636  55.1397 224.2077 0008661 315.2940  44.7336 14.15847705  2170
VICTUS HAZE PUMA        
1 69646U 26142A   26183.61244490  .00000346  00000+0  18747-4 0  9999
2 69646  97.4463  81.0617 0021977 309.0752  50.8528 15.20935823  2010
HOKUSHIN-1              
1 69648U 98067YH  26183.27579618  .00024869  00000+0  43464-3 0  9990
2 69648  51.6307 225.3259 0006105 281.0628  78.9674 15.50484062  1999
STARLINK-37656          
1 69649U 26143A   26183.58335648 -.02381792  00000+0 -16652-1 0  9996
2 69649  97.2839 227.2123 0001749  98.2919  99.4281 15.77574903  2937
STARLINK-37646          
1 69650U 26143B   26183.58335648  .00096777  00000+0  50139-3 0  9990
2 69650  97.2839 227.2295 0001298  96.5390 136.8758 15.80772383  2933
STARLINK-37749          
1 69651U 26143C   26183.58335648  .00054575  00000+0  28379-3 0  9992
2 69651  97.2833 227.2339 0001480  84.2104 160.0923 15.80822991  2931
STARLINK-37819          
1 69652U 26143D   26183.58335648  .00074799  00000+0  38805-3 0  9998
2 69652  97.2834 227.2224 0001226  87.8111 128.7146 15.80807746  2930
STARLINK-37729          
1 69653U 26143E   26183.58335648  .00071141  00000+0  36929-3 0  9992
2 69653  97.2836 227.2323 0000883  94.3568 145.5485 15.80806661  2938
STARLINK-37838          
1 69654U 26143F   26183.58335648  .00052057  00000+0  27090-3 0  9997
2 69654  97.2835 227.2234 0001367  91.6082 129.0280 15.80815141  2931
STARLINK-37884          
1 69655U 26143G   26183.58335648  .00046123  00000+0  24024-3 0  9999
2 69655  97.2834 227.2445 0001494 119.3649 149.7933 15.80817538  2939
STARLINK-37876          
1 69656U 26143H   26183.58335648  .00047063  00000+0  24511-3 0  9995
2 69656  97.2834 227.2352 0000919  92.7663 154.2430 15.80816811  2844
STARLINK-37784          
1 69657U 26143J   26183.58335648  .00093563  00000+0  48439-3 0  9997
2 69657  97.2834 227.2357 0001279  95.1931 153.6144 15.80797607  2841
STARLINK-37851          
1 69658U 26143K   26183.58335648  .00047283  00000+0  24624-3 0  9996
2 69658  97.2835 227.2469 0001223  90.4692 183.9514 15.80816939  2834
STARLINK-37229          
1 69659U 26143L   26183.58335648  .00075862  00000+0  39349-3 0  9991
2 69659  97.2831 227.2267 0001453  82.3327 145.3724 15.80808464  2870
STARLINK-37556          
1 69660U 26143M   26183.58335648  .00068769  00000+0  35707-3 0  9995
2 69660  97.2833 227.2311 0001261  92.8854 145.3205 15.80807868  2873
STARLINK-37867          
1 69661U 26143N   26183.58335648  .00074285  00000+0  38548-3 0  9992
2 69661  97.2832 227.2521 0001342  99.6382 187.6075 15.80803712  2842
STARLINK-37852          
1 69662U 26143P   26183.58335648  .00043966  00000+0  22909-3 0  9999
2 69662  97.2835 227.2318 0001216  92.3230 148.9215 15.80818553  2847
STARLINK-37554          
1 69663U 26143Q   26183.58335648  .00051364  00000+0  26729-3 0  9995
2 69663  97.2834 227.2486 0001532 115.5435 163.8730 15.80817616  2879
STARLINK-37830          
1 69664U 26143R   26183.58335648  .00055524  00000+0  28885-3 0  9993
2 69664  97.2834 227.2334 0001063 122.4499 123.4245 15.80810192  2839
STARLINK-37837          
1 69665U 26143S   26183.58335648  .00055916  00000+0  29084-3 0  9991
2 69665  97.2834 227.2495 0000855 123.9902 159.2156 15.80812703  2840
STARLINK-37943          
1 69666U 26143T   26183.58335648  .00045211  00000+0  23546-3 0  9996
2 69666  97.2834 227.2456 0001620 119.7017 153.2424 15.80823768  2844
STARLINK-37941          
1 69667U 26143U   26183.58335648  .00052116  00000+0  27118-3 0  9998
2 69667  97.2832 227.2419 0001301  97.8213 166.9433 15.80817998  2841
STARLINK-37930          
1 69668U 26143V   26183.58335648  .00046778  00000+0  24363-3 0  9995
2 69668  97.2832 227.2445 0001250 101.4171 169.3778 15.80817655  2837
STARLINK-37945          
1 69669U 26143W   26183.58335648  .00048862  00000+0  25441-3 0  9990
2 69669  97.2831 227.2488 0001088 104.1365 176.6161 15.80815891  2846
STARLINK-37948          
1 69670U 26143X   26183.58335648 -.01814664  00000+0 -10515-1 0  9990
2 69670  97.2833 227.2838 0001398 102.5028 259.1129 15.81328147  2846
STARLINK-37949          
1 69671U 26143Y   26183.58335648  .00031761  00000+0  16590-3 0  9998
2 69671  97.2836 227.2707 0001209 100.9188 231.4177 15.80822150  2843
STARLINK-37946          
1 69672U 26143Z   26183.58335648  .00022466  00000+0  11765-3 0  9990
2 69672  97.2832 227.2621 0001165 101.6673 208.0273 15.80829614  2842
TJS-26A                 
1 69674U 26144A   26174.32980920  .00009630 -16661-6  31526-3 0  9997
2 69674  19.5157 324.7456 7314561 179.7910 181.1077  2.27958502    21
